#cP2022  4  7 18  0  0.00000000     576 d+D   IGb14 EXT AIUB
## 2204 410400.00000000   300.00000000 59676 0.7500000000000
+   76   G01G02G03G04G05G06G07G08G09G10G11G12G13G14G15G16G17
+        G18G19G20G22G23G24G25G26G27G28G29G30G31G32R01R02R03
+        R04R05R07R08R09R12R13R14R15R17R18R19R20R21R22R24E01
+        E02E03E04E05E07E08E09E10E11E12E13E14E15E18E19E21E24
+        E25E26E27E30E31E33E34E36  0  0  0  0  0  0  0  0  0
++         6  7  6  7  7  6  7  6  6  6  9  7  7  7  7  7  7
++         8  7  7  7  6  6  6  6  6  7  7  6  7  6  7  7  7
++         6  7  7  6  6  8  9  7  8  8  7  8  9  8  8  8  5
++         6  6  5  6  5  6  6  7  7  7  5  6  6  6  7  6  5
++         6  5  6  6  6  6  6  6  0  0  0  0  0  0  0  0  0
%c M  cc GPS ccc cccc cccc cccc cccc ccccc ccccc ccccc ccccc
%c cc cc ccc ccc cccc cccc cccc cccc ccccc ccccc ccccc ccccc
%f  1.2500000  1.025000000  0.00000000000  0.000000000000000
%f  0.0000000  0.000000000  0.00000000000  0.000000000000000
%i    0    0    0    0      0      0      0      0         0
%i    0    0    0    0      0      0      0      0         0
/* Center for Orbit Determination in Europe (CODE)          
/* Ultra-rapid GRE orbits starting year-day 22097 18 hour   
/* Observed/predicted: 24/24 hours (data used up to 098R)   
/* PCV:IGS14      OL/AL:FES2014b NONE     YN ORB:CoN CLK:BRD
*  2022  4  9  8 15  0.00000000
PG01 -15517.527284  -1675.296534  21261.640770    389.187117               P   P
PG02  14861.813578  20584.224548  -6883.177859   -653.004296               P   P
PG03 -20160.019465   8705.487254  14753.777060   -199.271759               P   P
PG04 -25632.056108    -96.802974  -7115.767396   -177.359601               P   P
PG05  14098.266534   6554.151021 -21709.184290    -77.659866               P   P
PG06   4734.946885  25269.827321   6564.195677    260.331391               P   P
PG07  -8877.433431  15420.017250 -19166.985842    319.594875               P   P
PG08 -25936.489533  -5858.948382  -2999.695509    -63.203618               P   P
PG09 -19498.252593   8570.009889 -15952.502216   -344.862223               P   P
PG10   9405.267454 -22530.893214  10237.478334   -373.336639               P   P
PG11  12996.364235  21537.223343  -8555.811791    -47.455904               P   P
PG12  19833.347153  -4114.879025  16843.647491   -197.616751               P   P
PG13  21041.694221  13364.428592  -9560.622763    291.041758               P   P
PG14 -11125.385185  22271.495990   9132.925489   -101.135546               P   P
PG15  26442.661243   3108.007370  -2817.333761    -70.332255               P   P
PG16 -10043.394825 -11371.245751 -22058.214955   -489.798296               P   P
PG17  -3329.640874  14635.571032  22344.701204    598.038802               P   P
PG18   8929.018520 -15285.219126 -19771.771286    199.932137               P   P
PG19   4992.073104  15766.407230  20568.674791    142.020834               P   P
PG20   7623.569601  15758.440301 -20033.037089    515.907740               P   P
PG22  -8030.806250 -16307.121042  19837.541090    240.540425               P   P
PG23  16606.989723 -20649.891789   -665.357575    -13.567940               P   P
PG24  17817.628637   5298.470267  18817.960606    258.893308               P   P
PG25  19447.500891 -16446.219963   6722.304393    309.580041               P   P
PG26  -1162.569250 -19975.218988 -17401.880544    197.266280               P   P
PG27 -19438.102346 -12580.429055 -13572.429816    178.527519               P   P
PG28  -4285.413995  20680.701564  16758.817813    372.905208               P   P
PG29  20919.661889  -5551.049162 -15487.478697   -501.036517               P   P
PG30  -2865.566903  22324.718251 -13829.216180   -522.921045               P   P
PG31  -6061.304868 -25313.622354   3694.581729   -172.638272               P   P
PG32   -437.839850 -15516.968768  21705.227669   -101.671397               P   P
PR01  21283.884435    264.430017 -14061.682275      7.650815               P   P
PR02  23164.009496  -9244.756797   5246.964488    515.030625               P   P
PR03  10516.737410 -12745.326030  19461.915672     54.622309               P   P
PR04  -7608.806011  -8855.997229  22712.958887    135.833978               P   P
PR05 -21688.626443   -297.062208  13457.492021     90.849522               P   P
PR07  -9945.682725  12693.418091 -19736.127609     33.626333               P   P
PR08   7777.846297   8862.167026 -22554.301782    -64.478256               P   P
PR09 -11851.835891  14757.493894 -17047.379648     48.821445               P   P
PR12  10322.487011   4106.212021  22983.321956     17.820857               P   P
PR13  11851.103045 -13709.494585  17931.506872    -20.587817               P   P
PR14   6392.274022 -24661.954715   1427.677696     76.298602               P   P
PR15  -2601.203441 -20416.045429 -15054.960665     96.977688               P   P
PR17  -1428.861482 -14514.610649 -20912.362101    516.064361               P   P
PR18 -14346.079879 -19312.410970  -8554.845847    112.987269               P   P
PR19 -19223.757708 -15130.489429   7229.700462   -184.677798               P   P
PR20 -13181.104935    321.503752  21852.240598    -68.283576               P   P
PR21   2708.047287  15290.005415  20241.074050   -291.895913               P   P
PR22  14673.104784  19301.348444   7740.352912   -175.738632               P   P
PR24  13005.369349  -1570.904659 -21873.981544     88.246463               P   P
PE01  21215.199632 -12719.657557  16247.082481   -612.924629               P   P
PE02 -21227.124811  12882.387266 -16134.130893    291.672040               P   P
PE03 -27946.384043   4853.651682  -8438.379210   -546.129836               P   P
PE04  13228.924425 -14929.701070  21880.632797  -1002.664556               P   P
PE05 -26515.706198  -8277.632276  10231.592846   -192.525737               P   P
PE07   9696.677294  16386.598295 -22655.281740   -656.796680               P   P
PE08 -12809.456467  14947.284702 -22096.307211   -509.287864               P   P
PE09  -9933.515008 -16192.888075  22704.085168   -478.085762               P   P
PE10  -3772.573999 -25887.582707 -13859.594482   -505.576517               P   P
PE11 -11278.273573 -27052.039720  -4240.559458   4008.142701               P   P
PE12   4142.945118 -20793.866977 -20667.228436   4671.850973               P   P
PE13  10900.185329  27069.086740   4922.436761    427.895573               P   P
PE14  15505.924104 -16286.261262 -23324.640556  -1807.723849               P   P
PE15  -4175.468708  20635.298478  20806.566949    752.768432               P   P
PE18  -4936.976145  14420.287233  18300.985185  -1585.763101               P   P
PE19  28761.095552  -3168.766899   6245.404208  -2714.324927               P   P
PE21  15659.527648   6208.868271  24332.781521   -727.401975               P   P
PE24    252.283026 -23387.975076 -18144.183140   -551.139571               P   P
PE25 -15517.189796  -6470.721548 -24362.498523   -569.762646               P   P
PE26  19637.731359  16750.955000 -14480.224641  -1009.447206               P   P
PE27    811.306315  22752.690255  18920.292649   -272.166879               P   P
PE30 -15120.722344  25417.661702   1413.578111   -416.227044               P   P
PE31  14378.935609 -25755.849183  -2422.181951   -494.796391               P   P
PE33  16702.083349  -2086.732052 -24342.434968   -457.782390               P   P
PE34 -16619.655172   2319.735731  24378.256325   -511.124798               P   P
PE36 -19472.679307 -17569.001989  13741.131400   -357.121781               P   P
EOF
